#dV2023  1 31 10  0  0.00000000    1682       CTS   FIT  GFZ
## 2247 208800.00000000    30.00000000 59975 0.4166666666667
+    1   L65  0  0  0  0  0  0  0  0  0  0  0  0  0  0  0  0
+          0  0  0  0  0  0  0  0  0  0  0  0  0  0  0  0  0
+          0  0  0  0  0  0  0  0  0  0  0  0  0  0  0  0  0
+          0  0  0  0  0  0  0  0  0  0  0  0  0  0  0  0  0
+          0  0  0  0  0  0  0  0  0  0  0  0  0  0  0  0  0
++         0  0  0  0  0  0  0  0  0  0  0  0  0  0  0  0  0
++         0  0  0  0  0  0  0  0  0  0  0  0  0  0  0  0  0
++         0  0  0  0  0  0  0  0  0  0  0  0  0  0  0  0  0
++         0  0  0  0  0  0  0  0  0  0  0  0  0  0  0  0  0
++         0  0  0  0  0  0  0  0  0  0  0  0  0  0  0  0  0
%c L  cc GPS ccc cccc cccc cccc cccc ccccc ccccc ccccc ccccc
%c cc cc ccc ccc cccc cccc cccc cccc ccccc ccccc ccccc ccccc
%f  0.0000000  0.000000000  0.00000000000  0.000000000000000
%f  0.0000000  0.000000000  0.00000000000  0.000000000000000
%i    0    0    0    0      0      0      0      0         0
%i    0    0    0    0      0      0      0      0         0
/* CCCCCCCCCCCCCCCCCCCCCCCCCCCCCCCCCCCCCCCCCCCCCCCCCCCCCCCCCCCCCCCCCCCCCCCCCCCCC
/* C                             GFZ RSO-ORBIT                                 C
/* C DOI: https://doi.org/10.5880/GFZ_ORBIT/RSO/L65_G_v02                      C
/* C                                                                           C
/* C DORIS        RMS: not applicable                                          C
/* C GNSS-E Code  RMS: not applicable                                          C
/* C GNSS-E Phase RMS: not applicable                                          C
/* C GNSS-G Code  RMS:  56.137 [cm]   Obs.acc.:     13997 Obs.eli.:      1052  C
/* C GNSS-G Phase RMS:   5.157 [mm]   Obs.acc.:     13997 Obs.eli.:      1052  C
/* C SLR          RMS:   3.352 [cm]   Obs.acc.:        12 Obs.eli.:         0  C
/* C                                                                           C
/* CCCCCCCCCCCCCCCCCCCCCCCCCCCCCCCCCCCCCCCCCCCCCCCCCCCCCCCCCCCCCCCCCCCCCCCCCCCCC
*  2023  1 31 21 54  0.00000000
PL65   -236.991099  -6131.157055  -3118.536696   5498.370966
VL65  -4298.396103 -34314.818375  67766.323136 999999.999999
*  2023  1 31 21 54 30.00000000
PL65   -249.974344  -6230.696395  -2913.554858   5498.839578
VL65  -4354.647391 -32038.577188  68875.701332 999999.999999
*  2023  1 31 21 55  0.00000000
PL65   -263.104160  -6323.352814  -2705.358306   5499.308507
VL65  -4396.075703 -29726.633308  69909.264073 999999.999999
*  2023  1 31 21 55 30.00000000
PL65   -276.335776  -6409.023085  -2494.176262   5499.776866
VL65  -4422.483690 -27381.581327  70865.841721 999999.999999
*  2023  1 31 21 56  0.00000000
PL65   -289.623871  -6487.611827  -2280.241328   5500.246211
VL65  -4433.702021 -25006.055859  71744.349918 999999.999999
*  2023  1 31 21 56 30.00000000
PL65   -302.922657  -6559.031617  -2063.789232   5500.714537
VL65  -4429.589721 -22602.728089  72543.790790 999999.999999
*  2023  1 31 21 57  0.00000000
PL65   -316.185966  -6623.203097  -1845.058564   5501.183218
VL65  -4410.034407 -20174.302548  73263.253907 999999.999999
*  2023  1 31 21 57 30.00000000
PL65   -329.367336  -6680.055069  -1624.290512   5501.652100
VL65  -4374.952516 -17723.514261  73901.917167 999999.999999
*  2023  1 31 21 58  0.00000000
PL65   -342.420099  -6729.524582  -1401.728596   5502.120823
VL65  -4324.289650 -15253.126063  74459.048153 999999.999999
*  2023  1 31 21 58 30.00000000
PL65   -355.297467  -6771.557012  -1177.618399   5502.589796
VL65  -4258.020869 -12765.925174  74934.005785 999999.999999
*  2023  1 31 21 59  0.00000000
PL65   -367.952622  -6806.106127   -952.207287   5503.058361
VL65  -4176.150771 -10264.719169  75326.241285 999999.999999
*  2023  1 31 21 59 30.00000000
PL65   -380.338803  -6833.134145   -725.744133   5503.527112
VL65  -4078.713521  -7752.332271  75635.298437 999999.999999
*  2023  1 31 22  0  0.00000000
PL65   -392.409399  -6852.611777   -498.479041   5503.995825
VL65  -3965.772876  -5231.602123  75860.813725 999999.999999
*  2023  1 31 22  0 30.00000000
PL65   -404.118030  -6864.518263   -270.663066   5504.464540
VL65  -3837.422214  -2705.376899  76002.516593 999999.999999
*  2023  1 31 22  1  0.00000000
PL65   -415.418644  -6868.841399    -42.547934   5504.933438
VL65  -3693.784611   -176.512459  76060.230036 999999.999999
*  2023  1 31 22  1 30.00000000
PL65   -426.265602  -6865.577559    185.614239   5505.402041
VL65  -3535.012874   2352.130868  76033.871381 999999.999999
*  2023  1 31 22  2  0.00000000
PL65   -436.613768  -6854.731697    413.571231   5505.870692
VL65  -3361.289325   4877.691736  75923.452956 999999.999999
*  2023  1 31 22  2 30.00000000
PL65   -446.418597  -6836.317349    641.071001   5506.339355
VL65  -3172.825398   7397.311767  75729.082585 999999.999999
*  2023  1 31 22  3  0.00000000
PL65   -455.636220  -6810.356618    867.861975   5506.808090
VL65  -2969.861295   9908.139702  75450.963139 999999.999999
*  2023  1 31 22  3 30.00000000
PL65   -464.223532  -6776.880145   1093.693325   5507.277072
VL65  -2752.665834  12407.334490  75089.391800 999999.999999
*  2023  1 31 22  4  0.00000000
PL65   -472.138280  -6735.927073   1318.315262   5507.745567
VL65  -2521.536265  14892.068213  74644.760264 999999.999999
*  2023  1 31 22  4 30.00000000
PL65   -479.339140  -6687.545008   1541.479310   5508.214145
VL65  -2276.797685  17359.530028  74117.554969 999999.999999
*  2023  1 31 22  5  0.00000000
PL65   -485.785808  -6631.789955   1762.938595   5508.683145
VL65  -2018.802303  19806.930700  73508.355797 999999.999999
*  2023  1 31 22  5 30.00000000
PL65   -491.439075  -6568.726251   1982.448119   5509.152147
VL65  -1747.929438  22231.504762  72817.833922 999999.999999
*  2023  1 31 22  6  0.00000000
PL65   -496.260912  -6498.426494   2199.765036   5509.620650
VL65  -1464.584600  24630.512039  72046.753166 999999.999999
*  2023  1 31 22  6 30.00000000
PL65   -500.214540  -6420.971456   2414.648934   5510.089315
VL65  -1169.197818  27001.243498  71195.971303 999999.999999
*  2023  1 31 22  7  0.00000000
PL65   -503.264510  -6336.449982   2626.862109   5510.557823
VL65   -862.223560  29341.027695  70266.437356 999999.999999
*  2023  1 31 22  7 30.00000000
PL65   -505.376772  -6244.958869   2836.169839   5511.027002
VL65   -544.140363  31647.234651  69259.187584 999999.999999
*  2023  1 31 22  8  0.00000000
PL65   -506.518744  -6146.602740   3042.340636   5511.495591
VL65   -215.449563  33917.276856  68175.341395 999999.999999
*  2023  1 31 22  8 30.00000000
PL65   -506.659385  -6041.493920   3245.146490   5511.964537
VL65    123.324689  36148.608220  67016.100286 999999.999999
*  2023  1 31 22  9  0.00000000
PL65   -505.769259  -5929.752306   3444.363125   5512.433124
VL65    471.634959  38338.725833  65782.749715 999999.999999
*  2023  1 31 22  9 30.00000000
PL65   -503.820608  -5811.505235   3639.770245   5512.901953
VL65    828.911830  40485.174983  64476.658993 999999.999999
*  2023  1 31 22 10  0.00000000
PL65   -500.787411  -5686.887329   3831.151787   5513.370987
VL65   1194.565428  42585.553084  63099.278963 999999.999999
*  2023  1 31 22 10 30.00000000
PL65   -496.645448  -5556.040337   4018.296158   5513.839503
VL65   1567.986175  44637.512894  61652.139966 999999.999999
*  2023  1 31 22 11  0.00000000
PL65   -491.372354  -5419.112961   4200.996473   5514.308194
VL65   1948.545908  46638.765859  60136.849314 999999.999999
*  2023  1 31 22 11 30.00000000
PL65   -484.947678  -5276.260678   4379.050781   5514.776822
VL65   2335.599283  48587.084605  58555.088289 999999.999999
*  2023  1 31 22 12  0.00000000
PL65   -477.352926  -5127.645554   4552.262282   5515.245701
VL65   2728.485171  50480.304122  56908.609318 999999.999999
*  2023  1 31 22 12 30.00000000
PL65   -468.571610  -4973.436056   4720.439539   5515.714362
VL65   3126.527348  52316.322480  55199.234986 999999.999999
*  2023  1 31 22 13  0.00000000
PL65   -458.589296  -4813.806859   4883.396687   5516.183156
VL65   3529.034794  54093.103579  53428.857403 999999.999999
*  2023  1 31 22 13 30.00000000
PL65   -447.393641  -4648.938642   5040.953638   5516.652056
VL65   3935.302465  55808.680189  51599.436075 999999.999999
*  2023  1 31 22 14  0.00000000
PL65   -434.974438  -4479.017881   5192.936282   5517.120811
VL65   4344.612746  57461.156604  49712.995715 999999.999999
*  2023  1 31 22 14 30.00000000
PL65   -421.323650  -4304.236626   5339.176678   5517.589755
VL65   4756.237024  59048.711434  47771.623694 999999.999999
*  2023  1 31 22 15  0.00000000
PL65   -406.435440  -4124.792281   5479.513237   5518.058404
VL65   5169.436590  60569.600044  45777.466868 999999.999999
*  2023  1 31 22 15 30.00000000
PL65   -390.306203  -3940.887361   5613.790896   5518.527125
VL65   5583.463626  62022.156174  43732.728075 999999.999999
*  2023  1 31 22 16  0.00000000
PL65   -372.934586  -3752.729266   5741.861278   5518.996002
VL65   5997.562730  63404.792784  41639.663330 999999.999999
*  2023  1 31 22 16 30.00000000
PL65   -354.321516  -3560.530033   5863.582855   5519.464936
VL65   6410.972188  64716.003678  39500.579481 999999.999999
*  2023  1 31 22 17  0.00000000
PL65   -334.470210  -3364.506096   5978.821089   5519.933271
VL65   6822.924782  65954.365242  37317.830694 999999.999999
*  2023  1 31 22 17 30.00000000
PL65   -313.386196  -3164.878035   6087.448571   5520.402259
VL65   7232.648483  67118.536575  35093.814955 999999.999999
*  2023  1 31 22 18  0.00000000
PL65   -291.077324  -2961.870328   6189.345150   5520.871291
VL65   7639.367348  68207.258914  32830.972458 999999.999999
*  2023  1 31 22 18 30.00000000
PL65   -267.553775  -2755.711109   6284.398060   5521.340016
VL65   8042.302691  69219.356630  30531.785295 999999.999999
*  2023  1 31 22 19  0.00000000
PL65   -242.828071  -2546.631905   6372.502038   5521.808529
VL65   8440.674720  70153.740278  28198.775649 999999.999999
EOF
